{"type": "FeatureCollection", "features": [ {"type": "Feature", "properties": {"norad_id": 39122, "name": "EUTELSAT 117 WEST A", "group": "eutelsat", "lat": -0.03243037226910314, "lon": -114.22144589850568, "alt_km": 35773.81918830965, "timestamp": "2025-12-09T18:55:16.910020+00:00", "meta": {"OBJECT_NAME": "EUTELSAT 117 WEST A", "OBJECT_ID": "2013-012A", "EPOCH": "2025-12-09T13:10:20.257248", "MEAN_MOTION": 1.00270755, "ECCENTRICITY": 0.00030664, "INCLINATION": 0.0129, "RA_OF_ASC_NODE": 349.0918, "ARG_OF_PERICENTER": 271.5504, "MEAN_ANOMALY": 258.6774, "EPHEMERIS_TYPE": 0, "CLASSIFICATION_TYPE": "U", "NORAD_CAT_ID": 39122, "ELEMENT_SET_NO": 999, "REV_AT_EPOCH": 4653, "BSTAR": 0, "MEAN_MOTION_DOT": -1e-07, "MEAN_MOTION_DDOT": 0}, "tle": {"line1": "1 39122U 13012A   25343.54884557 -.00000010  00000+0  00000+0 0  9997", "line2": "2 39122   0.0129 349.0918 0003066 271.5504 258.6774  1.00270755 46538"}}, "geometry": {"type": "Point", "coordinates": [-114.22144589850568, -0.03243037226910314]}}, {"type": "Feature", "properties": {"norad_id": 39163, "name": "EUTELSAT 7B", "group": "eutelsat", "lat": 0.0010856480231485229, "lon": 9.621211807659451, "alt_km": 35775.11343291695, "timestamp": "2025-12-09T18:55:16.910032+00:00", "meta": {"OBJECT_NAME": "EUTELSAT 7B", "OBJECT_ID": "2013-022A", "EPOCH": "2025-12-09T13:36:22.491072", "MEAN_MOTION": 1.00271707, "ECCENTRICITY": 0.00045628, "INCLINATION": 0.0707, "RA_OF_ASC_NODE": 14.9491, "ARG_OF_PERICENTER": 299.7285, "MEAN_ANOMALY": 334.959, "EPHEMERIS_TYPE": 0, "CLASSIFICATION_TYPE": "U", "NORAD_CAT_ID": 39163, "ELEMENT_SET_NO": 999, "REV_AT_EPOCH": 4605, "BSTAR": 0, "MEAN_MOTION_DOT": 5e-07, "MEAN_MOTION_DDOT": 0}, "tle": {"line1": "1 39163U 13022A   25343.56692698  .00000050  00000+0  00000+0 0  9991", "line2": "2 39163   0.0707  14.9491 0004562 299.7285 334.9590  1.00271707 46058"}}, "geometry": {"type": "Point", "coordinates": [9.621211807659451, 0.0010856480231485229]}}, {"type": "Feature", "properties": {"norad_id": 39612, "name": "EXPRESS-AT1", "group": "eutelsat", "lat": 0.02183563607704214, "lon": 58.58043875778871, "alt_km": 35788.37025035695, "timestamp": "2025-12-09T18:55:16.910043+00:00", "meta": {"OBJECT_NAME": "EXPRESS-AT1", "OBJECT_ID": "2014-010A", "EPOCH": "2025-12-09T13:50:21.151680", "MEAN_MOTION": 1.00270428, "ECCENTRICITY": 5.73e-05, "INCLINATION": 0.0121, "RA_OF_ASC_NODE": 285.2569, "ARG_OF_PERICENTER": 276.1552, "MEAN_ANOMALY": 140.7355, "EPHEMERIS_TYPE": 0, "CLASSIFICATION_TYPE": "U", "NORAD_CAT_ID": 39612, "ELEMENT_SET_NO": 999, "REV_AT_EPOCH": 4291, "BSTAR": 0, "MEAN_MOTION_DOT": 8.1e-07, "MEAN_MOTION_DDOT": 0}, "tle": {"line1": "1 39612U 14010A   25343.57663370  .00000081  00000+0  00000+0 0  9998", "line2": "2 39612   0.0121 285.2569 0000573 276.1552 140.7355  1.00270428 42912"}}, "geometry": {"type": "Point", "coordinates": [58.58043875778871, 0.02183563607704214]}}, {"type": "Feature", "properties": {"norad_id": 39613, "name": "EXPRESS-AT2", "group": "eutelsat", "lat": 0.0009562721811906157, "lon": 142.44657182538973, "alt_km": 35791.246374236296, "timestamp": "2025-12-09T18:55:16.910055+00:00", "meta": {"OBJECT_NAME": "EXPRESS-AT2", "OBJECT_ID": "2014-010B", "EPOCH": "2025-12-09T14:54:38.530656", "MEAN_MOTION": 1.00272354, "ECCENTRICITY": 0.00015613, "INCLINATION": 0.0193, "RA_OF_ASC_NODE": 314.24, "ARG_OF_PERICENTER": 331.8795, "MEAN_ANOMALY": 156.0161, "EPHEMERIS_TYPE": 0, "CLASSIFICATION_TYPE": "U", "NORAD_CAT_ID": 39613, "ELEMENT_SET_NO": 999, "REV_AT_EPOCH": 4259, "BSTAR": 0, "MEAN_MOTION_DOT": -2.78e-06, "MEAN_MOTION_DDOT": 0}, "tle": {"line1": "1 39613U 14010B   25343.62127929 -.00000278  00000+0  00000+0 0  9999", "line2": "2 39613   0.0193 314.2400 0001561 331.8795 156.0161  1.00272354 42594"}}, "geometry": {"type": "Point", "coordinates": [142.44657182538973, 0.0009562721811906157]}}, {"type": "Feature", "properties": {"norad_id": 39773, "name": "EUTELSAT 3B", "group": "eutelsat", "lat": 0.0335412855270637, "lon": 5.734474823667716, "alt_km": 35800.844110057944, "timestamp": "2025-12-09T18:55:16.910098+00:00", "meta": {"OBJECT_NAME": "EUTELSAT 3B", "OBJECT_ID": "2014-030A", "EPOCH": "2025-12-09T13:35:15.098208", "MEAN_MOTION": 1.00271476, "ECCENTRICITY": 0.00047385, "INCLINATION": 0.0629, "RA_OF_ASC_NODE": 341.9539, "ARG_OF_PERICENTER": 246.3265, "MEAN_ANOMALY": 57.1942, "EPHEMERIS_TYPE": 0, "CLASSIFICATION_TYPE": "U", "NORAD_CAT_ID": 39773, "ELEMENT_SET_NO": 999, "REV_AT_EPOCH": 4216, "BSTAR": 0, "MEAN_MOTION_DOT": 2.2e-07, "MEAN_MOTION_DDOT": 0}, "tle": {"line1": "1 39773U 14030A   25343.56614697  .00000022  00000+0  00000+0 0  9990", "line2": "2 39773   0.0629 341.9539 0004738 246.3265  57.1942  1.00271476 42161"}}, "geometry": {"type": "Point", "coordinates": [5.734474823667716, 0.0335412855270637]}}, {"type": "Feature", "properties": {"norad_id": 40425, "name": "EUTELSAT 115 WEST B", "group": "eutelsat", "lat": 0.011177150101883526, "lon": -112.31125307876961, "alt_km": 35788.32738066228, "timestamp": "2025-12-09T18:55:16.910121+00:00", "meta": {"OBJECT_NAME": "EUTELSAT 115 WEST B", "OBJECT_ID": "2015-010B", "EPOCH": "2025-12-09T10:03:18.437760", "MEAN_MOTION": 1.00267856, "ECCENTRICITY": 2.833e-05, "INCLINATION": 0.0086, "RA_OF_ASC_NODE": 153.759, "ARG_OF_PERICENTER": 289.3308, "MEAN_ANOMALY": 31.2487, "EPHEMERIS_TYPE": 0, "CLASSIFICATION_TYPE": "U", "NORAD_CAT_ID": 40425, "ELEMENT_SET_NO": 999, "REV_AT_EPOCH": 3949, "BSTAR": 0, "MEAN_MOTION_DOT": -2.2e-07, "MEAN_MOTION_DDOT": 0}, "tle": {"line1": "1 40425U 15010B   25343.41896340 -.00000022  00000+0  00000+0 0  9997", "line2": "2 40425   0.0086 153.7590 0000283 289.3308  31.2487  1.00267856 39492"}}, "geometry": {"type": "Point", "coordinates": [-112.31125307876961, 0.011177150101883526]}}, {"type": "Feature", "properties": {"norad_id": 40875, "name": "EUTELSAT 8 WEST B", "group": "eutelsat", "lat": -0.003839625184518335, "lon": -5.346370197621436, "alt_km": 35787.670100089315, "timestamp": "2025-12-09T18:55:16.910133+00:00", "meta": {"OBJECT_NAME": "EUTELSAT 8 WEST B", "OBJECT_ID": "2015-039B", "EPOCH": "2025-12-09T13:31:52.921344", "MEAN_MOTION": 1.00271493, "ECCENTRICITY": 0.00041583, "INCLINATION": 0.0645, "RA_OF_ASC_NODE": 0.9958, "ARG_OF_PERICENTER": 258.725, "MEAN_ANOMALY": 13.8173, "EPHEMERIS_TYPE": 0, "CLASSIFICATION_TYPE": "U", "NORAD_CAT_ID": 40875, "ELEMENT_SET_NO": 999, "REV_AT_EPOCH": 3775, "BSTAR": 0, "MEAN_MOTION_DOT": -6.3e-07, "MEAN_MOTION_DDOT": 0}, "tle": {"line1": "1 40875U 15039B   25343.56380696 -.00000063  00000+0  00000+0 0  9990", "line2": "2 40875   0.0645   0.9958 0004158 258.7250  13.8173  1.00271493 37751"}}, "geometry": {"type": "Point", "coordinates": [-5.346370197621436, -0.003839625184518335]}}, {"type": "Feature", "properties": {"norad_id": 41310, "name": "EUTELSAT 9B", "group": "eutelsat", "lat": -0.015510686996011394, "lon": 11.658355933278063, "alt_km": 35791.91458166988, "timestamp": "2025-12-09T18:55:16.910145+00:00", "meta": {"OBJECT_NAME": "EUTELSAT 9B", "OBJECT_ID": "2016-005A", "EPOCH": "2025-12-09T06:50:38.880672", "MEAN_MOTION": 1.00272177, "ECCENTRICITY": 0.000488, "INCLINATION": 0.0363, "RA_OF_ASC_NODE": 53.41, "ARG_OF_PERICENTER": 211.4344, "MEAN_ANOMALY": 285.108, "EPHEMERIS_TYPE": 0, "CLASSIFICATION_TYPE": "U", "NORAD_CAT_ID": 41310, "ELEMENT_SET_NO": 999, "REV_AT_EPOCH": 3621, "BSTAR": 0, "MEAN_MOTION_DOT": 6.4e-07, "MEAN_MOTION_DDOT": 0}, "tle": {"line1": "1 41310U 16005A   25343.28517223  .00000064  00000+0  00000+0 0  9996", "line2": "2 41310   0.0363  53.4100 0004880 211.4344 285.1080  1.00272177 36218"}}, "geometry": {"type": "Point", "coordinates": [11.658355933278063, -0.015510686996011394]}}, {"type": "Feature", "properties": {"norad_id": 41382, "name": "EUTELSAT 65 WEST A", "group": "eutelsat", "lat": -0.061160777106522304, "lon": -62.597946273573676, "alt_km": 35776.42804439806, "timestamp": "2025-12-09T18:55:16.910157+00:00", "meta": {"OBJECT_NAME": "EUTELSAT 65 WEST A", "OBJECT_ID": "2016-014A", "EPOCH": "2025-12-09T12:38:04.428096", "MEAN_MOTION": 1.0027273, "ECCENTRICITY": 0.00026485, "INCLINATION": 0.0502, "RA_OF_ASC_NODE": 5.1997, "ARG_OF_PERICENTER": 259.4638, "MEAN_ANOMALY": 298.1642, "EPHEMERIS_TYPE": 0, "CLASSIFICATION_TYPE": "U", "NORAD_CAT_ID": 41382, "ELEMENT_SET_NO": 999, "REV_AT_EPOCH": 3563, "BSTAR": 0, "MEAN_MOTION_DOT": -2.74e-06, "MEAN_MOTION_DDOT": 0}, "tle": {"line1": "1 41382U 16014A   25343.52644014 -.00000274  00000+0  00000+0 0  9995", "line2": "2 41382   0.0502   5.1997 0002648 259.4638 298.1642  1.00272730 35636"}}, "geometry": {"type": "Point", "coordinates": [-62.597946273573676, -0.061160777106522304]}}, {"type": "Feature", "properties": {"norad_id": 41589, "name": "EUTELSAT 117 WEST B", "group": "eutelsat", "lat": 0.007879364741944707, "lon": -114.39650515620727, "alt_km": 35786.260000346585, "timestamp": "2025-12-09T18:55:16.910169+00:00", "meta": {"OBJECT_NAME": "EUTELSAT 117 WEST B", "OBJECT_ID": "2016-038B", "EPOCH": "2025-12-09T11:12:09.715968", "MEAN_MOTION": 1.00274699, "ECCENTRICITY": 2.38e-05, "INCLINATION": 0.0078, "RA_OF_ASC_NODE": 125.2291, "ARG_OF_PERICENTER": 302.5176, "MEAN_ANOMALY": 61.7595, "EPHEMERIS_TYPE": 0, "CLASSIFICATION_TYPE": "U", "NORAD_CAT_ID": 41589, "ELEMENT_SET_NO": 999, "REV_AT_EPOCH": 3476, "BSTAR": 0, "MEAN_MOTION_DOT": -1e-07, "MEAN_MOTION_DDOT": 0}, "tle": {"line1": "1 41589U 16038B   25343.46677912 -.00000010  00000+0  00000+0 0  9994", "line2": "2 41589   0.0078 125.2291 0000238 302.5176  61.7595  1.00274699 34764"}}, "geometry": {"type": "Point", "coordinates": [-114.39650515620727, 0.007879364741944707]}}]}